{"type": "FeatureCollection", "features": [ {"type": "Feature", "properties": {"norad_id": 43623, "name": "BEIDOU-3 M14 (C33)", "group": "beidou", "lat": -43.472671265218565, "lon": 30.203274320451417, "alt_km": 21525.911635985445, "timestamp": "2025-12-03T20:47:58.488940+00:00", "meta": {"OBJECT_NAME": "BEIDOU-3 M14 (C33)", "OBJECT_ID": "2018-072B", "EPOCH": "2025-12-01T19:14:30.937344", "MEAN_MOTION": 1.86230707, "ECCENTRICITY": 0.00030488, "INCLINATION": 56.4513, "RA_OF_ASC_NODE": 69.1766, "ARG_OF_PERICENTER": 335.7773, "MEAN_ANOMALY": 24.2115, "EPHEMERIS_TYPE": 0, "CLASSIFICATION_TYPE": "U", "NORAD_CAT_ID": 43623, "ELEMENT_SET_NO": 999, "REV_AT_EPOCH": 4897, "BSTAR": 0, "MEAN_MOTION_DOT": -4.3e-07, "MEAN_MOTION_DDOT": 0}, "tle": {"line1": "1 43623U 18072B   25335.80174696 -.00000043  00000+0  00000+0 0  9991", "line2": "2 43623  56.4513  69.1766 0003048 335.7773  24.2115  1.86230707 48976"}}, "geometry": {"type": "Point", "coordinates": [30.203274320451417, -43.472671265218565]}}, {"type": "Feature", "properties": {"norad_id": 43647, "name": "BEIDOU-3 M16 (C35)", "group": "beidou", "lat": -14.987655549196655, "lon": 137.91549887524144, "alt_km": 21549.497968522122, "timestamp": "2025-12-03T20:47:58.488952+00:00", "meta": {"OBJECT_NAME": "BEIDOU-3 M16 (C35)", "OBJECT_ID": "2018-078A", "EPOCH": "2025-12-03T00:48:25.625088", "MEAN_MOTION": 1.86232114, "ECCENTRICITY": 0.00069753, "INCLINATION": 54.271, "RA_OF_ASC_NODE": 306.8606, "ARG_OF_PERICENTER": 18.45, "MEAN_ANOMALY": 341.5609, "EPHEMERIS_TYPE": 0, "CLASSIFICATION_TYPE": "U", "NORAD_CAT_ID": 43647, "ELEMENT_SET_NO": 999, "REV_AT_EPOCH": 4850, "BSTAR": 0, "MEAN_MOTION_DOT": -6.5e-07, "MEAN_MOTION_DDOT": 0}, "tle": {"line1": "1 43647U 18078A   25337.03362992 -.00000065  00000+0  00000+0 0  9992", "line2": "2 43647  54.2710 306.8606 0006975  18.4500 341.5609  1.86232114 48502"}}, "geometry": {"type": "Point", "coordinates": [137.91549887524144, -14.987655549196655]}}, {"type": "Feature", "properties": {"norad_id": 43648, "name": "BEIDOU-3 M15 (C34)", "group": "beidou", "lat": 48.83285055468381, "lon": 71.4276989299738, "alt_km": 21522.97441760264, "timestamp": "2025-12-03T20:47:58.488963+00:00", "meta": {"OBJECT_NAME": "BEIDOU-3 M15 (C34)", "OBJECT_ID": "2018-078B", "EPOCH": "2025-12-01T00:21:40.976640", "MEAN_MOTION": 1.86232, "ECCENTRICITY": 0.0003569, "INCLINATION": 54.2686, "RA_OF_ASC_NODE": 306.9322, "ARG_OF_PERICENTER": 17.0419, "MEAN_ANOMALY": 342.9634, "EPHEMERIS_TYPE": 0, "CLASSIFICATION_TYPE": "U", "NORAD_CAT_ID": 43648, "ELEMENT_SET_NO": 999, "REV_AT_EPOCH": 4848, "BSTAR": 0, "MEAN_MOTION_DOT": -5.6e-07, "MEAN_MOTION_DDOT": 0}, "tle": {"line1": "1 43648U 18078B   25335.01505760 -.00000056  00000+0  00000+0 0  9991", "line2": "2 43648  54.2686 306.9322 0003569  17.0419 342.9634  1.86232000 48485"}}, "geometry": {"type": "Point", "coordinates": [71.4276989299738, 48.83285055468381]}}, {"type": "Feature", "properties": {"norad_id": 43683, "name": "BEIDOU-3 G1 (C59)", "group": "beidou", "lat": 2.265800226102934, "lon": 164.9391845641875, "alt_km": 35776.68105071944, "timestamp": "2025-12-03T20:47:58.488976+00:00", "meta": {"OBJECT_NAME": "BEIDOU-3 G1 (C59)", "OBJECT_ID": "2018-085A", "EPOCH": "2025-12-03T10:59:51.571392", "MEAN_MOTION": 1.00273643, "ECCENTRICITY": 0.0002059, "INCLINATION": 2.5827, "RA_OF_ASC_NODE": 103.2456, "ARG_OF_PERICENTER": 63.4836, "MEAN_ANOMALY": 210.8205, "EPHEMERIS_TYPE": 0, "CLASSIFICATION_TYPE": "U", "NORAD_CAT_ID": 43683, "ELEMENT_SET_NO": 999, "REV_AT_EPOCH": 2609, "BSTAR": 0, "MEAN_MOTION_DOT": -2.59e-06, "MEAN_MOTION_DDOT": 0}, "tle": {"line1": "1 43683U 18085A   25337.45823578 -.00000259  00000+0  00000+0 0  9993", "line2": "2 43683   2.5827 103.2456 0002059  63.4836 210.8205  1.00273643 26098"}}, "geometry": {"type": "Point", "coordinates": [164.9391845641875, 2.265800226102934]}}, {"type": "Feature", "properties": {"norad_id": 43706, "name": "BEIDOU-3 M17 (C36)", "group": "beidou", "lat": 4.563818984790871, "lon": -167.76153432438264, "alt_km": 21518.965312444296, "timestamp": "2025-12-03T20:47:58.488988+00:00", "meta": {"OBJECT_NAME": "BEIDOU-3 M17 (C36)", "OBJECT_ID": "2018-093A", "EPOCH": "2025-12-03T01:24:08.978400", "MEAN_MOTION": 1.86228152, "ECCENTRICITY": 0.00063526, "INCLINATION": 54.1727, "RA_OF_ASC_NODE": 188.9508, "ARG_OF_PERICENTER": 306.258, "MEAN_ANOMALY": 237.5457, "EPHEMERIS_TYPE": 0, "CLASSIFICATION_TYPE": "U", "NORAD_CAT_ID": 43706, "ELEMENT_SET_NO": 999, "REV_AT_EPOCH": 4788, "BSTAR": 0, "MEAN_MOTION_DOT": 1.18e-06, "MEAN_MOTION_DDOT": 0}, "tle": {"line1": "1 43706U 18093A   25337.05843725  .00000118  00000+0  00000+0 0  9993", "line2": "2 43706  54.1727 188.9508 0006352 306.2580 237.5457  1.86228152 47882"}}, "geometry": {"type": "Point", "coordinates": [-167.76153432438264, 4.563818984790871]}}, {"type": "Feature", "properties": {"norad_id": 43707, "name": "BEIDOU-3 M18 (C37)", "group": "beidou", "lat": 53.268835245593905, "lon": -66.57064896929761, "alt_km": 21527.61937929939, "timestamp": "2025-12-03T20:47:58.488999+00:00", "meta": {"OBJECT_NAME": "BEIDOU-3 M18 (C37)", "OBJECT_ID": "2018-093B", "EPOCH": "2025-12-02T02:36:40.524768", "MEAN_MOTION": 1.86226401, "ECCENTRICITY": 0.00063572, "INCLINATION": 54.1734, "RA_OF_ASC_NODE": 188.975, "ARG_OF_PERICENTER": 350.835, "MEAN_ANOMALY": 9.249, "EPHEMERIS_TYPE": 0, "CLASSIFICATION_TYPE": "U", "NORAD_CAT_ID": 43707, "ELEMENT_SET_NO": 999, "REV_AT_EPOCH": 4786, "BSTAR": 0, "MEAN_MOTION_DOT": 1.21e-06, "MEAN_MOTION_DDOT": 0}, "tle": {"line1": "1 43707U 18093B   25336.10880237  .00000121  00000+0  00000+0 0  9992", "line2": "2 43707  54.1734 188.9750 0006357 350.8350   9.2490  1.86226401 47869"}}, "geometry": {"type": "Point", "coordinates": [-66.57064896929761, 53.268835245593905]}}, {"type": "Feature", "properties": {"norad_id": 44204, "name": "BEIDOU-3 IGSO-1 (C38)", "group": "beidou", "lat": 57.32476075008682, "lon": 146.51573954241178, "alt_km": 35847.819018424554, "timestamp": "2025-12-03T20:47:58.489012+00:00", "meta": {"OBJECT_NAME": "BEIDOU-3 IGSO-1 (C38)", "OBJECT_ID": "2019-023A", "EPOCH": "2025-11-19T14:15:02.708640", "MEAN_MOTION": 1.00252177, "ECCENTRICITY": 0.0026966, "INCLINATION": 58.4003, "RA_OF_ASC_NODE": 39.8168, "ARG_OF_PERICENTER": 221.2202, "MEAN_ANOMALY": 126.9723, "EPHEMERIS_TYPE": 0, "CLASSIFICATION_TYPE": "U", "NORAD_CAT_ID": 44204, "ELEMENT_SET_NO": 999, "REV_AT_EPOCH": 510, "BSTAR": 0, "MEAN_MOTION_DOT": -2.26e-06, "MEAN_MOTION_DDOT": 0}, "tle": {"line1": "1 44204U 19023A   25323.59378135 -.00000226  00000+0  00000+0 0  9994", "line2": "2 44204  58.4003  39.8168 0026966 221.2202 126.9723  1.00252177  5102"}}, "geometry": {"type": "Point", "coordinates": [146.51573954241178, 57.32476075008682]}}, {"type": "Feature", "properties": {"norad_id": 44231, "name": "BEIDOU-2 G8 (C01)", "group": "beidou", "lat": 1.6199486296219925, "lon": 169.46144132250637, "alt_km": 35819.13262025216, "timestamp": "2025-12-03T20:47:58.489026+00:00", "meta": {"OBJECT_NAME": "BEIDOU-2 G8 (C01)", "OBJECT_ID": "2019-027A", "EPOCH": "2025-12-03T11:17:14.516160", "MEAN_MOTION": 1.0027016, "ECCENTRICITY": 0.0008317, "INCLINATION": 1.6367, "RA_OF_ASC_NODE": 74.698, "ARG_OF_PERICENTER": 254.7709, "MEAN_ANOMALY": 56.9725, "EPHEMERIS_TYPE": 0, "CLASSIFICATION_TYPE": "U", "NORAD_CAT_ID": 44231, "ELEMENT_SET_NO": 999, "REV_AT_EPOCH": 2411, "BSTAR": 0, "MEAN_MOTION_DOT": -2.29e-06, "MEAN_MOTION_DDOT": 0}, "tle": {"line1": "1 44231U 19027A   25337.47030690 -.00000229  00000+0  00000+0 0  9994", "line2": "2 44231   1.6367  74.6980 0008317 254.7709  56.9725  1.00270160 24115"}}, "geometry": {"type": "Point", "coordinates": [169.46144132250637, 1.6199486296219925]}}, {"type": "Feature", "properties": {"norad_id": 44337, "name": "BEIDOU-3 IGSO-2 (C39)", "group": "beidou", "lat": -12.973751483522907, "lon": 151.34382072078495, "alt_km": 35912.15182077633, "timestamp": "2025-12-03T20:47:58.489039+00:00", "meta": {"OBJECT_NAME": "BEIDOU-3 IGSO-2 (C39)", "OBJECT_ID": "2019-035A", "EPOCH": "2025-12-01T05:17:49.661952", "MEAN_MOTION": 1.00274502, "ECCENTRICITY": 0.00376064, "INCLINATION": 55.2223, "RA_OF_ASC_NODE": 160.6035, "ARG_OF_PERICENTER": 202.2564, "MEAN_ANOMALY": 266.4761, "EPHEMERIS_TYPE": 0, "CLASSIFICATION_TYPE": "U", "NORAD_CAT_ID": 44337, "ELEMENT_SET_NO": 999, "REV_AT_EPOCH": 2368, "BSTAR": 0, "MEAN_MOTION_DOT": -2.5e-07, "MEAN_MOTION_DDOT": 0}, "tle": {"line1": "1 44337U 19035A   25335.22071368 -.00000025  00000+0  00000+0 0  9992", "line2": "2 44337  55.2223 160.6035 0037606 202.2564 266.4761  1.00274502 23688"}}, "geometry": {"type": "Point", "coordinates": [151.34382072078495, -12.973751483522907]}}, {"type": "Feature", "properties": {"norad_id": 44542, "name": "BEIDOU-3 M24 (C46)", "group": "beidou", "lat": 39.12136435685026, "lon": -135.03703133317288, "alt_km": 21499.69589256387, "timestamp": "2025-12-03T20:47:58.489051+00:00", "meta": {"OBJECT_NAME": "BEIDOU-3 M24 (C46)", "OBJECT_ID": "2019-061A", "EPOCH": "2025-12-01T02:32:46.252896", "MEAN_MOTION": 1.86229258, "ECCENTRICITY": 0.00095598, "INCLINATION": 54.4002, "RA_OF_ASC_NODE": 189.409, "ARG_OF_PERICENTER": 23.5384, "MEAN_ANOMALY": 336.5991, "EPHEMERIS_TYPE": 0, "CLASSIFICATION_TYPE": "U", "NORAD_CAT_ID": 44542, "ELEMENT_SET_NO": 999, "REV_AT_EPOCH": 4210, "BSTAR": 0, "MEAN_MOTION_DOT": 1.18e-06, "MEAN_MOTION_DDOT": 0}, "tle": {"line1": "1 44542U 19061A   25335.10609089  .00000118  00000+0  00000+0 0  9995", "line2": "2 44542  54.4002 189.4090 0009559  23.5384 336.5991  1.86229258 42106"}}, "geometry": {"type": "Point", "coordinates": [-135.03703133317288, 39.12136435685026]}}]}